H1 CPF 01  gfz 2022 09 07 12  7502 tandemx   
H2 1003001  6202 36605    2022 09 07 00 59 42 2022 09 12 00 00 42   120 1 1  0 0 0
H9
10 0 59829  53262.000000  0   -1411217.752   -262999.798  -6744146.881
10 0 59829  53382.000000  0    -815542.741    429965.868  -6833353.333
10 0 59829  53502.000000  0    -193776.798   1104835.001  -6803409.234
10 0 59829  53622.000000  0     442893.967   1749563.675  -6654826.953
10 0 59829  53742.000000  0    1082815.993   2352819.669  -6390159.609
10 0 59829  53862.000000  0    1714077.731   2904178.848  -6013962.810
10 0 59829  53982.000000  0    2324726.828   3394304.485  -5532724.082
10 0 59829  54102.000000  0    2902993.414   3815106.017  -4954761.075
10 0 59829  54222.000000  0    3437515.534   4159876.510  -4290089.851
10 0 59829  54342.000000  0    3917563.845   4423406.008  -3550262.170
10 0 59829  54462.000000  0    4333260.530   4602067.099  -2748173.036
10 0 59829  54582.000000  0    4675786.527   4693869.796  -1897840.202
10 0 59829  54702.000000  0    4937572.643   4698485.019  -1014161.356
10 0 59829  54822.000000  0    5112470.034   4617234.524   -112649.985
10 0 59829  54942.000000  0    5195892.444   4453047.132    790842.543
10 0 59829  55062.000000  0    5184929.335   4210383.396   1680412.259
10 0 59829  55182.000000  0    5078427.568   3895129.025   2540391.197
10 0 59829  55302.000000  0    4877036.204   3514458.524   3355633.130
10 0 59829  55422.000000  0    4583213.147   3076673.846   4111787.594
10 0 59829  55542.000000  0    4201195.528   2591022.237   4795556.606
10 0 59829  55662.000000  0    3736935.877   2067498.966   5394929.983
10 0 59829  55782.000000  0    3198001.407   1516639.142   5899395.906
10 0 59829  55902.000000  0    2593443.841    949302.710   6300120.315
10 0 59829  56022.000000  0    1933641.969    376458.476   6590094.317
10 0 59829  56142.000000  0    1230120.427   -191026.777   6764250.767
10 0 59829  56262.000000  0     495346.148   -742593.781   6819549.556
10 0 59829  56382.000000  0    -257493.950  -1268187.479   6755026.828
10 0 59829  56502.000000  0   -1014729.620  -1758439.846   6571810.114
10 0 59829  56622.000000  0   -1762454.791  -2204836.962   6273098.424
10 0 59829  56742.000000  0   -2486780.527  -2599866.279   5864109.401
10 0 59829  56862.000000  0   -3174092.724  -2937144.784   5351996.536
10 0 59829  56982.000000  0   -3811312.863  -3211526.014   4745730.774
10 0 59829  57102.000000  0   -4386151.574  -3419180.983   4055946.942
10 0 59829  57222.000000  0   -4887350.705  -3557652.486   3294760.635
10 0 59829  57342.000000  0   -5304909.774  -3625881.880   2475557.789
10 0 59829  57462.000000  0   -5630292.801  -3624208.392   1612758.636
10 0 59829  57582.000000  0   -5856608.250  -3554339.064    721558.672
10 0 59829  57702.000000  0   -5978757.404  -3419289.518   -182345.941
10 0 59829  57822.000000  0   -5993547.977  -3223298.198  -1083043.272
10 0 59829  57942.000000  0   -5899769.068  -2971715.202  -1964695.985
10 0 59829  58062.000000  0   -5698224.086  -2670868.377  -2811828.000
10 0 59829  58182.000000  0   -5391723.934  -2327911.941  -3609600.959
10 0 59829  58302.000000  0   -4985040.326  -1950661.063  -4344076.058
10 0 59829  58422.000000  0   -4484821.670  -1547416.923  -5002455.603
10 0 59829  58542.000000  0   -3899473.832  -1126786.487  -5573301.184
10 0 59829  58662.000000  0   -3239008.561   -697500.753  -6046723.765
10 0 59829  58782.000000  0   -2514864.712   -268236.241  -6414543.796
10 0 59829  58902.000000  0   -1739705.757    152556.694  -6670420.926
10 0 59829  59022.000000  0    -927197.090    556815.239  -6809951.623
10 0 59829  59142.000000  0     -91768.850    937013.841  -6830736.337
10 0 59829  59262.000000  0     751634.014   1286300.476  -6732415.573
10 0 59829  59382.000000  0    1587811.786   1598616.218  -6516677.755
10 0 59829  59502.000000  0    2401578.754   1868799.308  -6187234.130
10 0 59829  59622.000000  0    3178034.395   2092669.896  -5749761.444
10 0 59829  59742.000000  0    3902832.753   2267094.482  -5211812.962
10 0 59829  59862.000000  0    4562447.340   2390029.993  -4582700.331
10 0 59829  59982.000000  0    5144428.113   2460546.397  -3873343.356
10 0 59829  60102.000000  0    5637642.866   2478826.488  -3096089.376
10 0 59829  60222.000000  0    6032499.039   2446143.024  -2264506.231
10 0 59829  60342.000000  0    6321141.943   2364813.339  -1393148.304
10 0 59829  60462.000000  0    6497620.436   2238131.320   -497300.620
10 0 59829  60582.000000  0    6558018.320   2070278.484    407293.880
10 0 59829  60702.000000  0    6500543.652   1866215.197   1304718.513
10 0 59829  60822.000000  0    6325578.179   1631556.934   2179169.405
10 0 59829  60942.000000  0    6035683.299   1372436.453   3015244.093
10 0 59829  61062.000000  0    5635560.274   1095355.970   3798220.658
10 0 59829  61182.000000  0    5131967.385    807033.714   4514323.251
10 0 59829  61302.000000  0    4533596.869    514248.964   5150966.138
10 0 59829  61422.000000  0    3850915.928    223689.124   5696975.427
10 0 59829  61542.000000  0    3095972.881    -58198.383   6142782.383
10 0 59829  61662.000000  0    2282176.467   -325343.879   6480584.468
10 0 59829  61782.000000  0    1424053.248   -572181.954   6704476.334
10 0 59829  61902.000000  0     536984.746   -793764.875   6810548.639
10 0 59829  62022.000000  0    -363070.588   -985860.097   6796951.251
10 0 59829  62142.000000  0   -1259864.015  -1145030.518   6663922.545
10 0 59829  62262.000000  0   -2137148.686  -1268696.075   6413784.599
10 0 59829  62382.000000  0   -2978971.950  -1355174.990   6050904.725
10 0 59829  62502.000000  0   -3769965.637  -1403705.087   5581626.279
10 0 59829  62622.000000  0   -4495631.364  -1414445.973   5014164.630
10 0 59829  62742.000000  0   -5142612.758  -1388460.783   4358468.726
10 0 59829  62862.000000  0   -5698949.229  -1327677.125   3626050.186
10 0 59829  62982.000000  0   -6154305.015  -1234828.117   2829783.290
10 0 59829  63102.000000  0   -6500170.607  -1113375.450   1983680.237
10 0 59829  63222.000000  0   -6730033.044   -967415.966   1102641.605
10 0 59829  63342.000000  0   -6839505.546   -801573.367    202186.476
10 0 59829  63462.000000  0   -6826414.445   -620877.925   -701829.240
10 0 59829  63582.000000  0   -6690841.829   -430637.511  -1593501.260
10 0 59829  63702.000000  0   -6435121.699   -236303.059  -2457164.609
10 0 59829  63822.000000  0   -6063793.392    -43333.068  -3277674.704
10 0 59829  63942.000000  0   -5583510.440    142941.286  -4040678.394
10 0 59829  64062.000000  0   -5002907.559    317445.910  -4732865.089
10 0 59829  64182.000000  0   -4332432.110    475485.466  -5342194.781
10 0 59829  64302.000000  0   -3584144.408    612854.444  -5858099.891
10 0 59829  64422.000000  0   -2771491.293    725934.004  -6271658.114
10 0 59829  64542.000000  0   -1909059.718    811774.110  -6575734.094
10 0 59829  64662.000000  0   -1012314.092    868159.840  -6765092.012
10 0 59829  64782.000000  0     -97321.378    893660.646  -6836475.066
10 0 59829  64902.000000  0     819529.452    887661.501  -6788654.466
10 0 59829  65022.000000  0    1721813.207    850375.772  -6622450.924
10 0 59829  65142.000000  0    2593357.237    782840.054  -6340722.635
10 0 59829  65262.000000  0    3418526.078    686890.904  -5948321.127
10 0 59829  65382.000000  0    4182498.394    565123.247  -5452015.469
10 0 59829  65502.000000  0    4871532.744    420830.959  -4860386.876
10 0 59829  65622.000000  0    5473219.520    257931.491  -4183692.150
10 0 59829  65742.000000  0    5976712.414     80874.515  -3433695.592
10 0 59829  65862.000000  0    6372934.034   -105463.175  -2623472.888
10 0 59829  65982.000000  0    6654752.879   -295894.688  -1767188.667
10 0 59829  66102.000000  0    6817124.709   -485049.317   -879849.064
10 0 59829  66222.000000  0    6857193.763   -667504.540     22964.071
10 0 59829  66342.000000  0    6774352.060   -837921.358    925372.318
10 0 59829  66462.000000  0    6570253.476   -991179.282   1811488.059
10 0 59829  66582.000000  0    6248783.069  -1122507.283   2665703.551
10 0 59829  66702.000000  0    5815978.894  -1227606.984   3472975.132
10 0 59829  66822.000000  0    5279912.268  -1302764.984   4219093.963
10 0 59829  66942.000000  0    4650528.560  -1344952.786   4890940.344
10 0 59829  67062.000000  0    3939452.472  -1351909.625   5476715.033
10 0 59829  67182.000000  0    3159764.094  -1322207.373   5966144.843
10 0 59829  67302.000000  0    2325749.554  -1255297.244   6350658.376
10 0 59829  67422.000000  0    1452633.756  -1151536.815   6623530.376
10 0 59829  67542.000000  0     556298.091  -1012196.955   6779994.257
10 0 59829  67662.000000  0    -347010.790   -839447.672   6817319.516
10 0 59829  67782.000000  0   -1240974.972   -636324.392   6734855.090
10 0 59829  67902.000000  0   -2109498.561   -406674.758   6534039.702
10 0 59829  68022.000000  0   -2936996.023   -155086.374   6218378.547
10 0 59829  68142.000000  0   -3708672.221    113203.156   5793387.152
10 0 59829  68262.000000  0   -4410790.374    392412.397   5266501.204
10 0 59829  68382.000000  0   -5030922.291    676336.801   4646952.275
10 0 59829  68502.000000  0   -5558176.470    958481.780   3945611.280
10 0 59829  68622.000000  0   -5983397.996   1232205.805   3174800.585
10 0 59829  68742.000000  0   -6299336.790   1490870.260   2348079.044
10 0 59829  68862.000000  0   -6500780.407   1727992.319   1480001.869
10 0 59829  68982.000000  0   -6584647.986   1937397.653    585859.748
10 0 59829  69102.000000  0   -6550040.974   2113369.057   -318598.708
10 0 59829  69222.000000  0   -6398249.003   2250786.029  -1217453.374
10 0 59829  69342.000000  0   -6132711.919   2345252.604  -2094901.262
10 0 59829  69462.000000  0   -5758939.375   2393210.731  -2935542.480
10 0 59829  69582.000000  0   -5284388.054   2392035.448  -3724656.713
10 0 59829  69702.000000  0   -4718301.912   2340109.055  -4448462.538
99
